{"epoch":1784838743,"count":18315,"objects":[{"id":"33434","name":"CHUANG XIN 1-02(CX-1-02)","type":"PAYLOAD","l1":"1 33434U 08056B   26204.60795991  .00000305  00000-0  13484-3 0  9997","l2":"2 33434  98.6134 230.5098 0015030  37.5864 322.6366 14.30160615923828"},{"id":"33498","name":"STARS (KUKAI)","type":"PAYLOAD","l1":"1 33498U 09002G   26203.80557380  .00004012  00000-0  36329-3 0  9990","l2":"2 33498  98.1555 152.5755 0009963  59.5951 300.6252 14.95964883943802"},{"id":"33499","name":"KKS-1 (KISEKI)","type":"PAYLOAD","l1":"1 33499U 09002H   26204.55237998  .00001081  00000-0  13912-3 0  9990","l2":"2 33499  98.1169 127.5703 0008099 161.9361 198.2141 14.83204132941583"},{"id":"33591","name":"NOAA 19","type":"PAYLOAD","l1":"1 33591U 09005A   26204.57613022  .00000012  00000-0  30461-4 0  9996","l2":"2 33591  98.9503 275.4741 0012708 288.6791  71.3002 14.13479312899628"},{"id":"35683","name":"DMC 2","type":"PAYLOAD","l1":"1 35683U 09041C   26204.56034182  .00000816  00000-0  12549-3 0  9991","l2":"2 35683  97.8878 338.6475 0001742  99.8053 260.3354 14.76102957911936"},{"id":"35865","name":"METEOR-M","type":"PAYLOAD","l1":"1 35865U 09049A   26204.35326261  .00000059  00000-0  45712-4 0  9998","l2":"2 35865  98.7411 166.5713 0001954 173.7530 186.3673 14.23163820874398"},{"id":"35931","name":"OCEANSAT 2","type":"PAYLOAD","l1":"1 35931U 09051A   26204.58599377  .00000174  00000-0  14472-3 0  9996","l2":"2 35931  98.2329 187.8035 0017824 129.5857 230.6887 13.99657189884425"},{"id":"35932","name":"SWISSCUBE","type":"PAYLOAD","l1":"1 35932U 09051B   26204.49750961  .00000830  00000-0  17327-3 0  9996","l2":"2 35932  98.3998 113.0137 0008113  97.1181 263.0943 14.62542294894463"},{"id":"35933","name":"BEESAT","type":"PAYLOAD","l1":"1 35933U 09051C   26204.45751221  .00000681  00000-0  14632-3 0  9993","l2":"2 35933  98.3926 112.5322 0006473 108.5434 251.6470 14.61771462894480"},{"id":"35935","name":"ITUPSAT 1","type":"PAYLOAD","l1":"1 35935U 09051E   26204.27468562  .00000634  00000-0  14082-3 0  9995","l2":"2 35935  98.4011 111.4996 0008515 120.7967 239.4072 14.60487446894004"},{"id":"35951","name":"DMSP 5D-3 F18 (USA 210)","type":"PAYLOAD","l1":"1 35951U 09057A   26204.55957868  .00000210  00000-0  13150-3 0  9997","l2":"2 35951  98.9064 185.2545 0011684 142.6518 217.5470 14.14915612864736"},{"id":"36037","name":"PROBA 2","type":"PAYLOAD","l1":"1 36037U 09059B   26204.48505523  .00000172  00000-0  50608-4 0  9991","l2":"2 36037  98.2464  27.3373 0013601 163.3286 196.8361 14.54876270886807"},{"id":"36110","name":"YAOGAN 7","type":"PAYLOAD","l1":"1 36110U 09069A   26204.23987128  .00000363  00000-0  57441-4 0  9996","l2":"2 36110  98.0022  89.8762 0023170 284.0627  75.8009 14.78040818894951"},{"id":"36122","name":"XIWANG-1 (HOPE-1)","type":"PAYLOAD","l1":"1 36122U 09072B   26204.57145675 -.00000495  00000-0 -11808-2 0  9996","l2":"2 36122 100.4040 157.8254 0007787 146.2980 213.8630 13.16438329797798"},{"id":"36358","name":"RADUGA 1M-2","type":"PAYLOAD","l1":"1 36358U 10002A   26204.63951372 -.00000266  00000-0  00000-0 0  9993","l2":"2 36358   3.7131  78.4047 0004598 264.3376 326.4329  0.98969769 50387"},{"id":"36519","name":"COSMOS 2463","type":"PAYLOAD","l1":"1 36519U 10017A   26204.53760778  .00000045  00000-0  33226-4 0  9999","l2":"2 36519  82.9578 222.9969 0036858  31.3053 132.9449 13.71667486812911"},{"id":"36795","name":"CARTOSAT 2B","type":"PAYLOAD","l1":"1 36795U 10035A   26204.61120866  .00000362  00000-0  56534-4 0  9991","l2":"2 36795  97.9935 254.9235 0012710  76.0317 284.2307 14.78657367865233"},{"id":"36797","name":"AISSAT 1","type":"PAYLOAD","l1":"1 36797U 10035C   26203.95990341  .00001387  00000-0  12441-3 0  9998","l2":"2 36797  98.0886 104.4613 0007638 307.1449  52.9074 14.97499734869573"},{"id":"36799","name":"TISAT 1","type":"PAYLOAD","l1":"1 36799U 10035E   26204.29318227  .00021823  00000-0  68647-3 0  9991","l2":"2 36799  98.0704 154.0856 0004851 104.9298 255.2479 15.32974639873230"},{"id":"36834","name":"YAOGAN 10","type":"PAYLOAD","l1":"1 36834U 10038A   26204.59917895  .00001510  00000-0  18144-3 0  9991","l2":"2 36834  97.8979 227.7136 0001635  83.8294  13.0239 14.85449248862612"},{"id":"37180","name":"SHIJIAN 6 04B (SJ-6 04B)","type":"PAYLOAD","l1":"1 37180U 10051B   26204.59454222  .00000117  00000-0  14578-4 0  9991","l2":"2 37180  97.8725 210.3949 0008721 186.5655 173.5454 14.99380627861138"},{"id":"37214","name":"FENGYUN 3B","type":"PAYLOAD","l1":"1 37214U 10059A   26204.60036447  .00000025  00000-0  36066-4 0  9998","l2":"2 37214  98.9604 250.7654 0023248  84.0013  68.8333 14.14847905812576"},{"id":"37216","name":"SKYMED 4","type":"PAYLOAD","l1":"1 37216U 10060A   26204.56190178  .00000352  00000-0  50740-4 0  9997","l2":"2 37216  97.8905  27.6362 0001533  87.9494 272.1894 14.82157335849955"},{"id":"37224","name":"O/OREOS (USA 219)","type":"PAYLOAD","l1":"1 37224U 10062C   26204.42499453  .00001789  00000-0  17393-3 0  9992","l2":"2 37224  71.9706 358.2425 0014555 349.2914  10.7944 14.93874898122057"},{"id":"37344","name":"ELEKTRO-L","type":"PAYLOAD","l1":"1 37344U 11001A   26204.19124852  .00000043  00000-0  00000-0 0  9997","l2":"2 37344   9.7653  54.1327 0004401  35.9000 153.5975  1.00163429 56845"},{"id":"37387","name":"RESOURCESAT 2","type":"PAYLOAD","l1":"1 37387U 11015A   26204.61772417  .00000052  00000-0  44014-4 0  9999","l2":"2 37387  98.7625 271.8040 0012012 147.9361 212.2549 14.21600985791352"},{"id":"37388","name":"YOUTHSAT","type":"PAYLOAD","l1":"1 37388U 11015B   26203.87366477  .00000151  00000-0  81302-4 0  9993","l2":"2 37388  98.3711 176.3238 0013354 234.6831 153.2866 14.25642919792724"},{"id":"37793","name":"APRIZESAT 6","type":"PAYLOAD","l1":"1 37793U 11044F   26204.60717659  .00000621  00000-0  94930-4 0  9992","l2":"2 37793  98.2328 115.8462 0042401 331.1649 152.9790 14.76966037802527"},{"id":"37839","name":"JUGNU","type":"PAYLOAD","l1":"1 37839U 11058B   26204.02255512  .00000401  00000-0  70106-4 0  9994","l2":"2 37839  19.9608  90.7073 0018653 112.3991  15.7019 14.13785262764100"},{"id":"37841","name":"SRMSAT","type":"PAYLOAD","l1":"1 37841U 11058D   26204.33651532  .00000363  00000-0  53261-4 0  9993","l2":"2 37841  19.9701 200.6646 0011561 241.2167 146.8753 14.11582322762933"}]}