OBJECT_NAME,OBJECT_ID,EPOCH,MEAN_MOTION,ECCENTRICITY,INCLINATION,RA_OF_ASC_NODE,ARG_OF_PERICENTER,MEAN_ANOMALY,EPHEMERIS_TYPE,CLASSIFICATION_TYPE,NORAD_CAT_ID,ELEMENT_SET_NO,REV_AT_EPOCH,BSTAR,MEAN_MOTION_DOT,MEAN_MOTION_DDOT
CHUANGXIN 1-02 (CX-1-02),2008-056B,2026-07-23T14:35:27.736224,14.30160615,.00150298,98.6134,230.5098,37.5864,322.6366,0,U,33434,999,92382,.13483849E-3,.305E-5,0
STARS (KUKAI),2009-002G,2026-07-22T19:20:01.576320,14.95964883,.00099634,98.1555,152.5755,59.5951,300.6252,0,U,33498,999,94380,.36328559E-3,.4012E-4,0
KKS-1 (KISEKI),2009-002H,2026-07-23T13:15:25.630272,14.83204132,.00080989,98.1169,127.5703,161.9361,198.2141,0,U,33499,999,94158,.13911747E-3,.1081E-4,0
NOAA 19,2009-005A,2026-07-23T13:49:37.651008,14.13479312,.00127084,98.9503,275.4741,288.6791,71.3002,0,U,33591,999,89962,.30460988E-4,.12E-6,0
UK-DMC 2,2009-041C,2026-07-23T13:26:53.533248,14.76102957,.00017416,97.8878,338.6475,99.8053,260.3354,0,U,35683,999,91193,.12549048E-3,.816E-5,0
METEOR-M 1,2009-049A,2026-07-23T08:28:41.889504,14.23163820,.0001954,98.7411,166.5713,173.7530,186.3673,0,U,35865,999,87439,.45711938E-4,.59E-6,0
OCEANSAT-2,2009-051A,2026-07-23T14:03:49.861728,13.99657189,.00178243,98.2329,187.8035,129.5857,230.6887,0,U,35931,999,88442,.14471504E-3,.174E-5,0
SWISSCUBE,2009-051B,2026-07-23T11:56:24.830304,14.62542294,.00081128,98.3998,113.0137,97.1181,263.0943,0,U,35932,999,89446,.17327399E-3,.83E-5,0
BEESAT-1,2009-051C,2026-07-23T10:58:49.054944,14.61771462,.00064728,98.3926,112.5322,108.5434,251.6470,0,U,35933,999,89448,.1463218E-3,.681E-5,0
ITUPSAT1,2009-051E,2026-07-23T06:35:32.837568,14.60487446,.00085148,98.4011,111.4996,120.7967,239.4072,0,U,35935,999,89400,.14081639E-3,.634E-5,0
DMSP 5D-3 F18 (USA 210),2009-057A,2026-07-23T13:25:47.597952,14.14915612,.00116839,98.9064,185.2545,142.6518,217.5470,0,U,35951,999,86473,.13150128E-3,.21E-5,0
PROBA-2,2009-059B,2026-07-23T11:38:28.771872,14.54876270,.00136008,98.2464,27.3373,163.3286,196.8361,0,U,36037,999,88680,.50608119E-4,.172E-5,0
YAOGAN-7,2009-069A,2026-07-23T05:45:24.878592,14.78040818,.00231696,98.0022,89.8762,284.0627,75.8009,0,U,36110,999,89495,.57441183E-4,.363E-5,0
XIWANG-1 (HOPE-1),2009-072B,2026-07-23T13:42:53.863200,13.16438329,.00077868,100.4040,157.8254,146.2980,213.8630,0,U,36122,999,79779,-.11808147E-2,-.495E-5,0
RADUGA-1M 2,2010-002A,2026-07-23T15:20:53.985408,0.98969769,.00045976,3.7131,78.4047,264.3376,326.4329,0,U,36358,999,5038,0,-.266E-5,0
COSMOS 2463,2010-017A,2026-07-23T12:54:09.312192,13.71667486,.00368578,82.9578,222.9969,31.3053,132.9449,0,U,36519,999,81291,.3322594E-4,.45E-6,0
CARTOSAT-2B,2010-035A,2026-07-23T14:40:08.428224,14.78657367,.00127099,97.9935,254.9235,76.0317,284.2307,0,U,36795,999,86523,.56534413E-4,.362E-5,0
AISSAT 1,2010-035C,2026-07-22T23:02:15.654624,14.97499734,.00076381,98.0886,104.4613,307.1449,52.9074,0,U,36797,999,86957,.12441152E-3,.1387E-4,0
TISAT 1,2010-035E,2026-07-23T07:02:10.948128,15.32974639,.00048506,98.0704,154.0856,104.9298,255.2479,0,U,36799,999,87323,.68646884E-3,.21823E-3,0
YAOGAN-10,2010-038A,2026-07-23T14:22:49.061280,14.85449248,.00016354,97.8979,227.7136,83.8294,13.0239,0,U,36834,999,86261,.18144297E-3,.151E-4,0
SHIJIAN-6 04B (SJ-6 04B),2010-051B,2026-07-23T14:16:08.447808,14.99380627,.00087213,97.8725,210.3949,186.5655,173.5454,0,U,37180,999,86113,.14578163E-4,.117E-5,0
FENGYUN 3B,2010-059A,2026-07-23T14:24:31.490208,14.14847905,.00232479,98.9604,250.7654,84.0013,68.8333,0,U,37214,999,81257,.36065799E-4,.25E-6,0
COSMO-SKYMED 4,2010-060A,2026-07-23T13:29:08.313792,14.82157335,.00015325,97.8905,27.6362,87.9494,272.1894,0,U,37216,999,84995,.50740396E-4,.352E-5,0
O/OREOS (USA 219),2010-062C,2026-07-23T10:11:59.527392,14.93874898,.00145546,71.9706,358.2425,349.2914,10.7944,0,U,37224,999,12205,.17393075E-3,.1789E-4,0
ELEKTRO-L 1 (GOMS 2),2011-001A,2026-07-23T04:35:23.872128,1.00163429,.00044015,9.7653,54.1327,35.9000,153.5975,0,U,37344,999,5684,0,.43E-6,0
RESOURCESAT-2,2011-015A,2026-07-23T14:49:31.368288,14.21600985,.00120115,98.7625,271.8040,147.9361,212.2549,0,U,37387,999,79135,.44013759E-4,.52E-6,0
YOUTHSAT,2011-015B,2026-07-22T20:58:04.636128,14.25642919,.00133535,98.3711,176.3238,234.6831,153.2866,0,U,37388,999,79272,.81302387E-4,.151E-5,0
APRIZESAT 6,2011-044F,2026-07-23T14:34:20.057376,14.76966037,.00424015,98.2328,115.8462,331.1649,152.9790,0,U,37793,999,80252,.94929938E-4,.621E-5,0
JUGNU,2011-058B,2026-07-23T00:32:28.762368,14.13785262,.00186531,19.9608,90.7073,112.3991,15.7019,0,U,37839,999,76410,.70105674E-4,.401E-5,0
SRMSAT,2011-058D,2026-07-23T08:04:34.923648,14.11582322,.00115608,19.9701,200.6646,241.2167,146.8753,0,U,37841,999,76293,.53261444E-4,.363E-5,0
